{"epoch":1784710044,"count":18256,"objects":[{"id":"41866","name":"GOES 16","type":"PAYLOAD","l1":"1 41866U 16071A   26202.59556191 -.00000089  00000-0  00000-0 0  9991","l2":"2 41866   0.4199  85.4484 0000685  72.3972 251.2077  1.00271776 35443"},{"id":"41869","name":"TIANLIAN 1-04","type":"PAYLOAD","l1":"1 41869U 16072A   26202.65134711  .00000032  00000-0  00000+0 0  9998","l2":"2 41869   0.9541  82.7293 0044803  91.2777 176.6642  1.00273151 35642"},{"id":"41879","name":"WGS 8 (USA 272)","type":"PAYLOAD","l1":"1 41879U 16075A   26202.17614492 -.00000202  00000-0  00000-0 0  9999","l2":"2 41879   0.0199  55.1111 0000148 350.6747 106.3794  1.00271281 35166"},{"id":"41882","name":"FENGYUN 4A","type":"PAYLOAD","l1":"1 41882U 16077A   26202.64086039 -.00000357  00000-0  00000-0 0  9998","l2":"2 41882   2.4080  79.8916 0008147 159.3196  54.5323  1.00265376 35272"},{"id":"41893","name":"ECHOSTAR 19","type":"PAYLOAD","l1":"1 41893U 16079A   26202.59712192 -.00000137  00000-0  00000-0 0  9998","l2":"2 41893   0.0177  67.4949 0001608  46.0659 303.6578  1.00272743 35046"},{"id":"41903","name":"JCSAT 15","type":"PAYLOAD","l1":"1 41903U 16082A   26202.28170073 -.00000350  00000-0  00000-0 0  9993","l2":"2 41903   0.0166  67.3153 0000700  54.4763  28.7252  1.00270471 35100"},{"id":"41904","name":"STARONE D1","type":"PAYLOAD","l1":"1 41904U 16082B   26202.59972193 -.00000209  00000-0  00000-0 0  9994","l2":"2 41904   0.0087  15.6493 0002065 105.1044 310.5197  1.00273042 35116"},{"id":"41911","name":"TJS-2","type":"PAYLOAD","l1":"1 41911U 17001A   26202.62949793 -.00000005  00000-0  00000-0 0  9992","l2":"2 41911   0.9199  84.8725 0000863  88.9320  58.7306  1.00272499 35064"},{"id":"41937","name":"SBIRS GEO 4 (USA 273)","type":"PAYLOAD","l1":"1 41937U 17004A   26202.62069537  .00000128  00000-0  00000-0 0  9997","l2":"2 41937   2.3085  44.1474 0002862  67.4140  73.1175  1.00280359 34940"},{"id":"41942","name":"HISPASAT 36W-1","type":"PAYLOAD","l1":"1 41942U 17006A   26202.39530997 -.00000242  00000-0  00000-0 0  9990","l2":"2 41942   0.0312 238.9494 0001191 264.8215 261.7016  1.00281490 34585"},{"id":"41944","name":"TELKOM 3S","type":"PAYLOAD","l1":"1 41944U 17007A   26202.63973373  .00000000  00000-0  00000-0 0  9990","l2":"2 41944   0.0230  67.2405 0002592  55.2289 165.2404  1.00268669 34481"},{"id":"41945","name":"INTELSAT 32E","type":"PAYLOAD","l1":"1 41945U 17007B   26202.53613441 -.00000267  00000-0  00000-0 0  9993","l2":"2 41945   0.0120  30.5077 0000570  15.3316  43.2772  1.00270121 34579"},{"id":"42070","name":"ECHOSTAR 23","type":"PAYLOAD","l1":"1 42070U 17014A   26202.45426822 -.00000056  00000-0  00000-0 0  9993","l2":"2 42070   0.0192  61.9168 0002121  55.7564 235.1706  1.00272094 34260"},{"id":"42075","name":"WGS 9 (USA 275)","type":"PAYLOAD","l1":"1 42075U 17016A   26202.32878524  .00000000  00000-0  00000-0 0  9994","l2":"2 42075   0.0166  49.7707 0000304  72.4232 283.2914  1.00270735 34230"},{"id":"42432","name":"SES 10","type":"PAYLOAD","l1":"1 42432U 17017A   26202.60266861 -.00000271  00000-0  00000-0 0  9999","l2":"2 42432   0.0165  49.5718 0002763  70.4453 329.3995  1.00269819 34108"},{"id":"42662","name":"CHINASAT 16","type":"PAYLOAD","l1":"1 42662U 17018A   26201.28377593 -.00000354  00000-0  00000-0 0  9995","l2":"2 42662   0.0865  88.7982 0004931 127.9478 294.0130  1.00272872 34081"},{"id":"42691","name":"KOREASAT 7","type":"PAYLOAD","l1":"1 42691U 17023A   26202.63930039 -.00000360  00000-0  00000-0 0  9990","l2":"2 42691   0.0177  14.2177 0000791 105.8907 165.3355  1.00271458 33718"},{"id":"42692","name":"SGDC","type":"PAYLOAD","l1":"1 42692U 17023B   26202.37702090 -.00000248  00000-0  00000-0 0  9991","l2":"2 42692   0.0122  29.9106 0002364  90.5485 239.5505  1.00272501 33747"},{"id":"42695","name":"GSAT 9","type":"PAYLOAD","l1":"1 42695U 17024A   26202.67476829 -.00000285  00000-0  00000-0 0  9997","l2":"2 42695   0.1009  90.6025 0002265  26.9157 162.1311  1.00274128 33641"},{"id":"42698","name":"INMARSAT 5-F4","type":"PAYLOAD","l1":"1 42698U 17025A   26202.48492794  .00000077  00000-0  00000-0 0  9997","l2":"2 42698   0.0191  59.2410 0000455  96.0599  15.0152  1.00271338 33628"},{"id":"42709","name":"SES 15","type":"PAYLOAD","l1":"1 42709U 17026A   26202.27892093  .00000061  00000-0  00000-0 0  9997","l2":"2 42709   0.0290 317.0918 0001025 186.3345 126.8704  1.00272289  7772"},{"id":"42738","name":"QZS-2","type":"PAYLOAD","l1":"1 42738U 17028A   26201.46513987 -.00000138  00000-0  00000-0 0  9999","l2":"2 42738  39.3796 242.6632 0756850 269.6615  95.8478  1.00275408  7964"},{"id":"42740","name":"VIASAT 2","type":"PAYLOAD","l1":"1 42740U 17029A   26202.24608056 -.00000264  00000-0  00000-0 0  9992","l2":"2 42740   0.0209 299.9104 0000492 218.8013 158.9714  1.00271019 33543"},{"id":"42741","name":"EUTE 172B","type":"PAYLOAD","l1":"1 42741U 17029B   26202.52544624 -.00000004  00000-0  00000-0 0  9996","l2":"2 42741   0.0277 123.0505 0000218 293.5955 243.7845  1.00272679 34083"},{"id":"42747","name":"GSAT 19","type":"PAYLOAD","l1":"1 42747U 17031A   26202.62577125  .00000127  00000-0  00000-0 0  9993","l2":"2 42747   0.0545  89.8745 0006355   3.3884 119.2526  1.00272648 33491"},{"id":"42749","name":"ECHOSTAR 21","type":"PAYLOAD","l1":"1 42749U 17032A   26202.61835536  .00000068  00000-0  00000-0 0  9992","l2":"2 42749   1.7707 357.9345 0002413 111.6599  62.6307  1.00272322 33445"},{"id":"42801","name":"BULGARIASAT-1","type":"PAYLOAD","l1":"1 42801U 17038A   26202.61670868  .00000013  00000-0  00000-0 0  9992","l2":"2 42801   0.0175  51.7553 0003020  75.1940  36.3375  1.00272648 33190"},{"id":"42814","name":"HELLAS-SAT 3","type":"PAYLOAD","l1":"1 42814U 17040A   26202.48137459  .00000154  00000-0  00000-0 0  9994","l2":"2 42814   0.0385  34.8657 0003357  45.9845  70.7042  1.00275016 33157"},{"id":"42815","name":"GSAT 17","type":"PAYLOAD","l1":"1 42815U 17040B   26202.34967201 -.00000256  00000-0  00000-0 0  9990","l2":"2 42815   0.0470 254.7244 0002122  22.3741 241.3707  1.00271448 33138"},{"id":"42818","name":"INTELSAT 35E","type":"PAYLOAD","l1":"1 42818U 17041A   26202.46690119  .00000000  00000-0  00000-0 0  9994","l2":"2 42818   0.0227  58.5568 0002193  60.8879 313.3792  1.00269704 33155"},{"id":"42907","name":"COSMOS 2520","type":"PAYLOAD","l1":"1 42907U 17046A   26201.83378034  .00000136  00000-0  00000-0 0  9997","l2":"2 42907   0.0407 107.0073 0000797 345.1513 191.6974  1.00280558 32739"},{"id":"42915","name":"TDRS 13","type":"PAYLOAD","l1":"1 42915U 17047A   26202.61410867 -.00000099  00000-0  00000-0 0  9994","l2":"2 42915   3.4613   3.5764 0015055 111.6628  33.8125  1.00272517 32693"}]}