OBJECT_NAME,OBJECT_ID,EPOCH,MEAN_MOTION,ECCENTRICITY,INCLINATION,RA_OF_ASC_NODE,ARG_OF_PERICENTER,MEAN_ANOMALY,EPHEMERIS_TYPE,CLASSIFICATION_TYPE,NORAD_CAT_ID,ELEMENT_SET_NO,REV_AT_EPOCH,BSTAR,MEAN_MOTION_DOT,MEAN_MOTION_DDOT
GOES 16,2016-071A,2026-07-21T14:17:36.549024,1.00271776,.0000685,0.4199,85.4484,72.3972,251.2077,0,U,41866,999,3544,0,-.89E-6,0
TIANLIAN 1-04,2016-072A,2026-07-21T15:37:56.390304,1.00273151,.0044803,0.9541,82.7293,91.2777,176.6642,0,U,41869,999,3564,0,.32E-6,0
WGS F8 (USA 272),2016-075A,2026-07-21T04:13:38.921088,1.00271281,.00001476,0.0199,55.1111,350.6747,106.3794,0,U,41879,999,3516,0,-.202E-5,0
FENGYUN 4A,2016-077A,2026-07-21T15:22:50.337696,1.00265376,.00081469,2.4080,79.8916,159.3196,54.5323,0,U,41882,999,3527,0,-.357E-5,0
ECHOSTAR 19,2016-079A,2026-07-21T14:19:51.333888,1.00272743,.00016076,0.0177,67.4949,46.0659,303.6578,0,U,41893,999,3504,0,-.137E-5,0
JCSAT-110A (JCSAT-15),2016-082A,2026-07-21T06:45:38.943072,1.00270471,.00007003,0.0166,67.3153,54.4763,28.7252,0,U,41903,999,3510,0,-.35E-5,0
STAR ONE D1,2016-082B,2026-07-21T14:23:35.974752,1.00273042,.00020646,0.0087,15.6493,105.1044,310.5197,0,U,41904,999,3511,0,-.209E-5,0
TJS-2,2017-001A,2026-07-21T15:06:28.621152,1.00272499,.00008626,0.9199,84.8725,88.9320,58.7306,0,U,41911,999,3506,0,-.5E-7,0
SBIRS GEO-4 (USA 273),2017-004A,2026-07-21T14:53:48.079968,1.00280359,.00028624,2.3085,44.1474,67.4140,73.1175,0,U,41937,999,3494,0,.128E-5,0
HISPASAT 36W-1,2017-006A,2026-07-21T09:29:14.781408,1.00281490,.00011906,0.0312,238.9494,264.8215,261.7016,0,U,41942,999,3458,0,-.242E-5,0
TELKOM 3S,2017-007A,2026-07-21T15:21:12.994272,1.00268669,.00025922,0.0230,67.2405,55.2289,165.2404,0,U,41944,999,3448,0,0,0
INTELSAT 32E (IS-32E),2017-007B,2026-07-21T12:52:02.013024,1.00270121,.00005696,0.0120,30.5077,15.3316,43.2772,0,U,41945,999,3457,0,-.267E-5,0
ECHOSTAR 23,2017-014A,2026-07-21T10:54:08.774208,1.00272094,.00021212,0.0192,61.9168,55.7564,235.1706,0,U,42070,999,3426,0,-.56E-6,0
WGS F9 (USA 275),2017-016A,2026-07-21T07:53:27.044736,1.00270735,.00003037,0.0166,49.7707,72.4232,283.2914,0,U,42075,999,3423,0,0,0
SES-10,2017-017A,2026-07-21T14:27:50.567904,1.00269819,.00027631,0.0165,49.5718,70.4453,329.3995,0,U,42432,999,3410,0,-.271E-5,0
CHINASAT 16 (SJ-13),2017-018A,2026-07-20T06:48:38.240352,1.00272872,.00049307,0.0865,88.7982,127.9478,294.0130,0,U,42662,999,3408,0,-.354E-5,0
KOREASAT 7,2017-023A,2026-07-21T15:20:35.553696,1.00271458,.00007912,0.0177,14.2177,105.8907,165.3355,0,U,42691,999,3371,0,-.36E-5,0
SGDC,2017-023B,2026-07-21T09:02:54.605760,1.00272501,.0002364,0.0122,29.9106,90.5485,239.5505,0,U,42692,999,3374,0,-.248E-5,0
GSAT-9,2017-024A,2026-07-21T16:11:39.980256,1.00274128,.00022649,0.1009,90.6025,26.9157,162.1311,0,U,42695,999,3364,0,-.285E-5,0
INMARSAT 5-F4,2017-025A,2026-07-21T11:38:17.774016,1.00271338,.00004555,0.0191,59.2410,96.0599,15.0152,0,U,42698,999,3362,0,.77E-6,0
SES-15,2017-026A,2026-07-21T06:41:38.768352,1.00272289,.00010248,0.0290,317.0918,186.3345,126.8704,0,U,42709,999,777,0,.61E-6,0
QZS-2 (MICHIBIKI-2),2017-028A,2026-07-20T11:09:48.084768,1.00275408,.07568495,39.3796,242.6632,269.6615,95.8478,0,U,42738,999,796,0,-.138E-5,0
VIASAT-2,2017-029A,2026-07-21T05:54:21.360384,1.00271019,.00004916,0.0209,299.9104,218.8013,158.9714,0,U,42740,999,3354,0,-.264E-5,0
EUTELSAT 172B,2017-029B,2026-07-21T12:36:38.555136,1.00272679,.00002176,0.0277,123.0505,293.5955,243.7845,0,U,42741,999,3408,0,-.4E-7,0
GSAT-19,2017-031A,2026-07-21T15:01:06.636000,1.00272648,.0006355,0.0545,89.8745,3.3884,119.2526,0,U,42747,999,3349,0,.127E-5,0
ECHOSTAR 21,2017-032A,2026-07-21T14:50:25.903104,1.00272322,.00024128,1.7707,357.9345,111.6599,62.6307,0,U,42749,999,3344,0,.68E-6,0
BULGARIASAT-1,2017-038A,2026-07-21T14:48:03.629952,1.00272648,.00030204,0.0175,51.7553,75.1940,36.3375,0,U,42801,999,3319,0,.13E-6,0
HELLAS-SAT 3,2017-040A,2026-07-21T11:33:10.764576,1.00275016,.00033566,0.0385,34.8657,45.9845,70.7042,0,U,42814,999,3315,0,.154E-5,0
GSAT-17,2017-040B,2026-07-21T08:23:31.661664,1.00271448,.00021216,0.0470,254.7244,22.3741,241.3707,0,U,42815,999,3313,0,-.256E-5,0
INTELSAT 35E (IS-35E),2017-041A,2026-07-21T11:12:20.262816,1.00269704,.0002193,0.0227,58.5568,60.8879,313.3792,0,U,42818,999,3315,0,0,0
COSMOS 2520,2017-046A,2026-07-20T20:00:38.621376,1.00280558,.00007967,0.0407,107.0073,345.1513,191.6974,0,U,42907,999,3273,0,.136E-5,0
TDRS 13,2017-047A,2026-07-21T14:44:18.989088,1.00272517,.00150551,3.4613,3.5764,111.6628,33.8125,0,U,42915,999,3269,0,-.99E-6,0
